{
  "type": "FeatureCollection",
  "features": [
    {
      "type": "Feature",
      "properties": {
        "norad_id": 65731,
        "name": "1998-067XK",
        "group": "stations",
        "lat": 45.847014602553216,
        "lon": 161.4426141775459,
        "alt_km": 364.19252360920837,
        "timestamp": "2025-12-18T17:50:13.725351+00:00",
        "meta_object_name": "1998-067XK",
        "meta_object_id": "1998-067XK",
        "meta_epoch": "2025-12-17T14:00:04.713696",
        "meta_mean_motion": 15.66666293,
        "meta_eccentricity": 0.00047593,
        "meta_inclination": 51.6289,
        "meta_ra_of_asc_node": 112.64,
        "meta_arg_of_pericenter": 277.2608,
        "meta_mean_anomaly": 82.7846,
        "meta_ephemeris_type": 0,
        "meta_classification_type": "U",
        "meta_norad_cat_id": 65731,
        "meta_element_set_no": 999,
        "meta_rev_at_epoch": 1390,
        "meta_bstar": 0.00079228691,
        "meta_mean_motion_dot": 0.00085225,
        "meta_mean_motion_ddot": 0,
        "tle_line1": "1 65731U 98067XK  25351.58338789  .00085225  00000+0  79229-3 0  9992",
        "tle_line2": "2 65731  51.6289 112.6400 0004759 277.2608  82.7846 15.66666293 13904"
      },
      "geometry": {
        "type": "Point",
        "coordinates": [
          161.4426141775459,
          45.847014602553216
        ]
      }
    },
    {
      "type": "Feature",
      "properties": {
        "norad_id": 65732,
        "name": "RSP-03",
        "group": "stations",
        "lat": 49.141841927200126,
        "lon": -140.46932284384252,
        "alt_km": 355.55106114951286,
        "timestamp": "2025-12-18T17:50:13.725362+00:00",
        "meta_object_name": "RSP-03",
        "meta_object_id": "1998-067XL",
        "meta_epoch": "2025-12-17T13:53:35.595744",
        "meta_mean_motion": 15.69845633,
        "meta_eccentricity": 0.0005617,
        "meta_inclination": 51.6262,
        "meta_ra_of_asc_node": 111.8477,
        "meta_arg_of_pericenter": 283.4279,
        "meta_mean_anomaly": 76.6092,
        "meta_ephemeris_type": 0,
        "meta_classification_type": "U",
        "meta_norad_cat_id": 65732,
        "meta_element_set_no": 999,
        "meta_rev_at_epoch": 1392,
        "meta_bstar": 0.00093703449,
        "meta_mean_motion_dot": 0.00115432,
        "meta_mean_motion_ddot": 0,
        "tle_line1": "1 65732U 98067XL  25351.57888421  .00115432  00000+0  93703-3 0  9992",
        "tle_line2": "2 65732  51.6262 111.8477 0005617 283.4279  76.6092 15.69845633 13925"
      },
      "geometry": {
        "type": "Point",
        "coordinates": [
          -140.46932284384252,
          49.141841927200126
        ]
      }
    },
    {
      "type": "Feature",
      "properties": {
        "norad_id": 65733,
        "name": "GHS-01",
        "group": "stations",
        "lat": 8.541989523422084,
        "lon": -82.57113185797402,
        "alt_km": 341.77623124964066,
        "timestamp": "2025-12-18T17:50:13.725372+00:00",
        "meta_object_name": "GHS-01",
        "meta_object_id": "1998-067XM",
        "meta_epoch": "2025-12-17T18:18:48.824640",
        "meta_mean_motion": 15.77001027,
        "meta_eccentricity": 0.00078519,
        "meta_inclination": 51.6274,
        "meta_ra_of_asc_node": 109.3249,
        "meta_arg_of_pericenter": 313.5973,
        "meta_mean_anomaly": 46.4375,
        "meta_ephemeris_type": 0,
        "meta_classification_type": "U",
        "meta_norad_cat_id": 65733,
        "meta_element_set_no": 999,
        "meta_rev_at_epoch": 1397,
        "meta_bstar": 0.0012359693,
        "meta_mean_motion_dot": 0.00209888,
        "meta_mean_motion_ddot": 0,
        "tle_line1": "1 65733U 98067XM  25351.76306510  .00209888  00000+0  12360-2 0  9996",
        "tle_line2": "2 65733  51.6274 109.3249 0007851 313.5973  46.4375 15.77001027 13970"
      },
      "geometry": {
        "type": "Point",
        "coordinates": [
          -82.57113185797402,
          8.541989523422084
        ]
      }
    },
    {
      "type": "Feature",
      "properties": {
        "norad_id": 65941,
        "name": "YOTSUBA-KULOVER",
        "group": "stations",
        "lat": 35.28260364931163,
        "lon": 143.88518687473976,
        "alt_km": 382.3648938375063,
        "timestamp": "2025-12-18T17:50:13.725383+00:00",
        "meta_object_name": "YOTSUBA-KULOVER",
        "meta_object_id": "1998-067XN",
        "meta_epoch": "2025-12-18T06:52:26.759712",
        "meta_mean_motion": 15.60190722,
        "meta_eccentricity": 0.00016464,
        "meta_inclination": 51.6284,
        "meta_ra_of_asc_node": 112.0835,
        "meta_arg_of_pericenter": 310.7967,
        "meta_mean_anomaly": 49.2884,
        "meta_ephemeris_type": 0,
        "meta_classification_type": "U",
        "meta_norad_cat_id": 65941,
        "meta_element_set_no": 999,
        "meta_rev_at_epoch": 1072,
        "meta_bstar": 0.00083849398,
        "meta_mean_motion_dot": 0.0006971,
        "meta_mean_motion_ddot": 0,
        "tle_line1": "1 65941U 98067XN  25352.28642083  .00069710  00000+0  83849-3 0  9992",
        "tle_line2": "2 65941  51.6284 112.0835 0001646 310.7967  49.2884 15.60190722 10721"
      },
      "geometry": {
        "type": "Point",
        "coordinates": [
          143.88518687473976,
          35.28260364931163
        ]
      }
    },
    {
      "type": "Feature",
      "properties": {
        "norad_id": 65942,
        "name": "BOTAN",
        "group": "stations",
        "lat": 51.312505894927725,
        "lon": -152.74901426510513,
        "alt_km": 370.54716924937657,
        "timestamp": "2025-12-18T17:50:13.725394+00:00",
        "meta_object_name": "BOTAN",
        "meta_object_id": "1998-067XP",
        "meta_epoch": "2025-12-18T06:41:53.060640",
        "meta_mean_motion": 15.64025211,
        "meta_eccentricity": 0.0002845,
        "meta_inclination": 51.6279,
        "meta_ra_of_asc_node": 111.2842,
        "meta_arg_of_pericenter": 286.3286,
        "meta_mean_anomaly": 73.7396,
        "meta_ephemeris_type": 0,
        "meta_classification_type": "U",
        "meta_norad_cat_id": 65942,
        "meta_element_set_no": 999,
        "meta_rev_at_epoch": 1073,
        "meta_bstar": 0.0011338772,
        "meta_mean_motion_dot": 0.00110248,
        "meta_mean_motion_ddot": 0,
        "tle_line1": "1 65942U 98067XP  25352.27908635  .00110248  00000+0  11339-2 0  9997",
        "tle_line2": "2 65942  51.6279 111.2842 0002845 286.3286  73.7396 15.64025211 10734"
      },
      "geometry": {
        "type": "Point",
        "coordinates": [
          -152.74901426510513,
          51.312505894927725
        ]
      }
    },
    {
      "type": "Feature",
      "properties": {
        "norad_id": 65943,
        "name": "E-KAGAKU-1",
        "group": "stations",
        "lat": 34.884646833543705,
        "lon": 143.3205613723455,
        "alt_km": 383.28999411944824,
        "timestamp": "2025-12-18T17:50:13.725405+00:00",
        "meta_object_name": "E-KAGAKU-1",
        "meta_object_id": "1998-067XQ",
        "meta_epoch": "2025-12-17T17:02:27.271104",
        "meta_mean_motion": 15.60109171,
        "meta_eccentricity": 0.0001423,
        "meta_inclination": 51.6296,
        "meta_ra_of_asc_node": 114.9884,
        "meta_arg_of_pericenter": 240.8217,
        "meta_mean_anomaly": 119.2634,
        "meta_ephemeris_type": 0,
        "meta_classification_type": "U",
        "meta_norad_cat_id": 65943,
        "meta_element_set_no": 999,
        "meta_rev_at_epoch": 1063,
        "meta_bstar": 0.0007379067,
        "meta_mean_motion_dot": 0.00061026,
        "meta_mean_motion_ddot": 0,
        "tle_line1": "1 65943U 98067XQ  25351.71003786  .00061026  00000+0  73791-3 0  9999",
        "tle_line2": "2 65943  51.6296 114.9884 0001423 240.8217 119.2634 15.60109171 10634"
      },
      "geometry": {
        "type": "Point",
        "coordinates": [
          143.3205613723455,
          34.884646833543705
        ]
      }
    },
    {
      "type": "Feature",
      "properties": {
        "norad_id": 66052,
        "name": "HRC MONOBLOCK CAMERA",
        "group": "stations",
        "lat": -51.5714767150157,
        "lon": 24.534875881366006,
        "alt_km": 407.2115098706199,
        "timestamp": "2025-12-18T17:50:13.725415+00:00",
        "meta_object_name": "HRC MONOBLOCK CAMERA",
        "meta_object_id": "1998-067XR",
        "meta_epoch": "2025-12-17T23:42:04.173120",
        "meta_mean_motion": 15.54503599,
        "meta_eccentricity": 0.00027144,
        "meta_inclination": 51.6291,
        "meta_ra_of_asc_node": 115.3324,
        "meta_arg_of_pericenter": 206.9196,
        "meta_mean_anomaly": 153.1654,
        "meta_ephemeris_type": 0,
        "meta_classification_type": "U",
        "meta_norad_cat_id": 66052,
        "meta_element_set_no": 999,
        "meta_rev_at_epoch": 965,
        "meta_bstar": 0.00044715153,
        "meta_mean_motion_dot": 0.00029641,
        "meta_mean_motion_ddot": 0,
        "tle_line1": "1 66052U 98067XR  25351.98754830  .00029641  00000+0  44715-3 0  9994",
        "tle_line2": "2 66052  51.6291 115.3324 0002714 206.9196 153.1654 15.54503599  9652"
      },
      "geometry": {
        "type": "Point",
        "coordinates": [
          24.534875881366006,
          -51.5714767150157
        ]
      }
    }
  ]
}